SENTINEL-6              
1 46984U 20086A   23349.89435553 -.00000033  00000+0  12276-3 0  9997
2 46984  66.0407 234.0472 0007669 269.7757  90.2380 12.80928929143223
